CCSDS_OMM_VERS = 2.0
CREATION_DATE  = 
ORIGINATOR     = 

OBJECT_NAME    = RSP-03
OBJECT_ID      = 1998-067XL
CENTER_NAME    = EARTH
REF_FRAME      = TEME
TIME_SYSTEM    = UTC
MEAN_ELEMENT_THEORY = SGP/SGP4

EPOCH          = 2026-02-08T15:53:47.964480
MEAN_MOTION    = 16.02581073
ECCENTRICITY   = .0007277
INCLINATION    = 51.6148
RA_OF_ASC_NODE = 196.1853
ARG_OF_PERICENTER = 299.9440
MEAN_ANOMALY   = 60.0848

EPHEMERIS_TYPE = 0
CLASSIFICATION_TYPE = U
NORAD_CAT_ID   = 65732
ELEMENT_SET_NO = 999
REV_AT_EPOCH   = 2232
BSTAR          = .13863E-2
MEAN_MOTION_DOT = .844645E-2
MEAN_MOTION_DDOT = .35986E-3

CCSDS_OMM_VERS = 2.0
CREATION_DATE  = 
ORIGINATOR     = 

OBJECT_NAME    = YOTSUBA-KULOVER
OBJECT_ID      = 1998-067XN
CENTER_NAME    = EARTH
REF_FRAME      = TEME
TIME_SYSTEM    = UTC
MEAN_ELEMENT_THEORY = SGP/SGP4

EPOCH          = 2026-02-08T12:31:49.408896
MEAN_MOTION    = 15.70844847
ECCENTRICITY   = .00040356
INCLINATION    = 51.6241
RA_OF_ASC_NODE = 207.3788
ARG_OF_PERICENTER = 254.3372
MEAN_ANOMALY   = 105.7180

EPHEMERIS_TYPE = 0
CLASSIFICATION_TYPE = U
NORAD_CAT_ID   = 65941
ELEMENT_SET_NO = 999
REV_AT_EPOCH   = 1890
BSTAR          = .88222041E-3
MEAN_MOTION_DOT = .113213E-2
MEAN_MOTION_DDOT = 0

CCSDS_OMM_VERS = 2.0
CREATION_DATE  = 
ORIGINATOR     = 

OBJECT_NAME    = BOTAN
OBJECT_ID      = 1998-067XP
CENTER_NAME    = EARTH
REF_FRAME      = TEME
TIME_SYSTEM    = UTC
MEAN_ELEMENT_THEORY = SGP/SGP4

EPOCH          = 2026-02-08T11:04:57.999360
MEAN_MOTION    = 15.84336701
ECCENTRICITY   = .00062229
INCLINATION    = 51.6179
RA_OF_ASC_NODE = 203.9271
ARG_OF_PERICENTER = 277.7015
MEAN_ANOMALY   = 82.3282

EPHEMERIS_TYPE = 0
CLASSIFICATION_TYPE = U
NORAD_CAT_ID   = 65942
ELEMENT_SET_NO = 999
REV_AT_EPOCH   = 1894
BSTAR          = .14174891E-2
MEAN_MOTION_DOT = .342562E-2
MEAN_MOTION_DDOT = 0

CCSDS_OMM_VERS = 2.0
CREATION_DATE  = 
ORIGINATOR     = 

OBJECT_NAME    = E-KAGAKU-1
OBJECT_ID      = 1998-067XQ
CENTER_NAME    = EARTH
REF_FRAME      = TEME
TIME_SYSTEM    = UTC
MEAN_ELEMENT_THEORY = SGP/SGP4

EPOCH          = 2026-02-08T11:01:20.564256
MEAN_MOTION    = 15.70729024
ECCENTRICITY   = .00034046
INCLINATION    = 51.6264
RA_OF_ASC_NODE = 207.7212
ARG_OF_PERICENTER = 271.2805
MEAN_ANOMALY   = 88.7802

EPHEMERIS_TYPE = 0
CLASSIFICATION_TYPE = U
NORAD_CAT_ID   = 65943
ELEMENT_SET_NO = 999
REV_AT_EPOCH   = 1889
BSTAR          = .10307731E-2
MEAN_MOTION_DOT = .13202E-2
MEAN_MOTION_DDOT = 0

CCSDS_OMM_VERS = 2.0
CREATION_DATE  = 
ORIGINATOR     = 

OBJECT_NAME    = HRC MONOBLOCK CAMERA
OBJECT_ID      = 1998-067XR
CENTER_NAME    = EARTH
REF_FRAME      = TEME
TIME_SYSTEM    = UTC
MEAN_ELEMENT_THEORY = SGP/SGP4

EPOCH          = 2026-02-08T16:37:42.705696
MEAN_MOTION    = 15.59202897
ECCENTRICITY   = .0000906
INCLINATION    = 51.6277
RA_OF_ASC_NODE = 211.5318
ARG_OF_PERICENTER = 358.6930
MEAN_ANOMALY   = 1.4060

EPHEMERIS_TYPE = 0
CLASSIFICATION_TYPE = U
NORAD_CAT_ID   = 66052
ELEMENT_SET_NO = 999
REV_AT_EPOCH   = 1786
BSTAR          = .54863E-3
MEAN_MOTION_DOT = .43596E-3
MEAN_MOTION_DDOT = 0

CCSDS_OMM_VERS = 2.0
CREATION_DATE  = 
ORIGINATOR     = 

OBJECT_NAME    = HTV-X1
OBJECT_ID      = 2025-241A
CENTER_NAME    = EARTH
REF_FRAME      = TEME
TIME_SYSTEM    = UTC
MEAN_ELEMENT_THEORY = SGP/SGP4

EPOCH          = 2026-02-08T14:23:57.391584
MEAN_MOTION    = 15.48484385
ECCENTRICITY   = .00110352
INCLINATION    = 51.6313
RA_OF_ASC_NODE = 216.1577
ARG_OF_PERICENTER = 77.5493
MEAN_ANOMALY   = 282.6729

EPHEMERIS_TYPE = 0
CLASSIFICATION_TYPE = U
NORAD_CAT_ID   = 66174
ELEMENT_SET_NO = 999
REV_AT_EPOCH   = 51
BSTAR          = .17211231E-3
MEAN_MOTION_DOT = .8889E-4
MEAN_MOTION_DDOT = 0

CCSDS_OMM_VERS = 2.0
CREATION_DATE  = 
ORIGINATOR     = 

OBJECT_NAME    = SZ-21 MODULE
OBJECT_ID      = 2025-246C
CENTER_NAME    = EARTH
REF_FRAME      = TEME
TIME_SYSTEM    = UTC
MEAN_ELEMENT_THEORY = SGP/SGP4

EPOCH          = 2026-02-08T07:37:37.166592
MEAN_MOTION    = 15.66324855
ECCENTRICITY   = .0002849
INCLINATION    = 41.4766
RA_OF_ASC_NODE = 23.8541
ARG_OF_PERICENTER = 283.8241
MEAN_ANOMALY   = 76.2283

EPHEMERIS_TYPE = 0
CLASSIFICATION_TYPE = U
NORAD_CAT_ID   = 66515
ELEMENT_SET_NO = 999
REV_AT_EPOCH   = 1346
BSTAR          = .3409E-3
MEAN_MOTION_DOT = .36164E-3
MEAN_MOTION_DDOT = 0

CCSDS_OMM_VERS = 2.0
CREATION_DATE  = 
ORIGINATOR     = 

OBJECT_NAME    = SHENZHOU-22
OBJECT_ID      = 2025-272A
CENTER_NAME    = EARTH
REF_FRAME      = TEME
TIME_SYSTEM    = UTC
MEAN_ELEMENT_THEORY = SGP/SGP4

EPOCH          = 2026-02-08T06:24:08.771616
MEAN_MOTION    = 15.59347217
ECCENTRICITY   = .00049883
INCLINATION    = 41.4686
RA_OF_ASC_NODE = 27.0109
ARG_OF_PERICENTER = 28.6322
MEAN_ANOMALY   = 331.4790

EPHEMERIS_TYPE = 0
CLASSIFICATION_TYPE = U
NORAD_CAT_ID   = 66645
ELEMENT_SET_NO = 999
REV_AT_EPOCH   = 26764
BSTAR          = .2660401E-3
MEAN_MOTION_DOT = .21315E-3
MEAN_MOTION_DDOT = 0

CCSDS_OMM_VERS = 2.0
CREATION_DATE  = 
ORIGINATOR     = 

OBJECT_NAME    = SOYUZ-MS 28
OBJECT_ID      = 2025-275A
CENTER_NAME    = EARTH
REF_FRAME      = TEME
TIME_SYSTEM    = UTC
MEAN_ELEMENT_THEORY = SGP/SGP4

EPOCH          = 2026-02-08T14:23:57.390720
MEAN_MOTION    = 15.48484385
ECCENTRICITY   = .0011035
INCLINATION    = 51.6313
RA_OF_ASC_NODE = 216.1577
ARG_OF_PERICENTER = 77.5493
MEAN_ANOMALY   = 282.6729

EPHEMERIS_TYPE = 0
CLASSIFICATION_TYPE = U
NORAD_CAT_ID   = 66664
ELEMENT_SET_NO = 999
REV_AT_EPOCH   = 55182
BSTAR          = .17211E-3
MEAN_MOTION_DOT = .8889E-4
MEAN_MOTION_DDOT = 0

CCSDS_OMM_VERS = 2.0
CREATION_DATE  = 
ORIGINATOR     = 

OBJECT_NAME    = DUPLEX
OBJECT_ID      = 1998-067XS
CENTER_NAME    = EARTH
REF_FRAME      = TEME
TIME_SYSTEM    = UTC
MEAN_ELEMENT_THEORY = SGP/SGP4

EPOCH          = 2026-02-08T17:37:15.331008
MEAN_MOTION    = 15.54186590
ECCENTRICITY   = .0001472
INCLINATION    = 51.6293
RA_OF_ASC_NODE = 214.0577
ARG_OF_PERICENTER = 73.9350
MEAN_ANOMALY   = 286.1802

EPHEMERIS_TYPE = 0
CLASSIFICATION_TYPE = U
NORAD_CAT_ID   = 66906
ELEMENT_SET_NO = 999
REV_AT_EPOCH   = 1062
BSTAR          = .47621E-3
MEAN_MOTION_DOT = .31235E-3
MEAN_MOTION_DDOT = 0

CCSDS_OMM_VERS = 2.0
CREATION_DATE  = 
ORIGINATOR     = 

OBJECT_NAME    = ISS OBJECT XT
OBJECT_ID      = 1998-067XT
CENTER_NAME    = EARTH
REF_FRAME      = TEME
TIME_SYSTEM    = UTC
MEAN_ELEMENT_THEORY = SGP/SGP4

EPOCH          = 2026-02-08T17:19:45.701472
MEAN_MOTION    = 15.61617476
ECCENTRICITY   = .0001843
INCLINATION    = 51.6269
RA_OF_ASC_NODE = 212.4746
ARG_OF_PERICENTER = 230.6031
MEAN_ANOMALY   = 129.4800

EPHEMERIS_TYPE = 0
CLASSIFICATION_TYPE = U
NORAD_CAT_ID   = 66907
ELEMENT_SET_NO = 999
REV_AT_EPOCH   = 1064
BSTAR          = .10574E-2
MEAN_MOTION_DOT = .93312E-3
MEAN_MOTION_DDOT = 0

CCSDS_OMM_VERS = 2.0
CREATION_DATE  = 
ORIGINATOR     = 

OBJECT_NAME    = ISS OBJECT XU
OBJECT_ID      = 1998-067XU
CENTER_NAME    = EARTH
REF_FRAME      = TEME
TIME_SYSTEM    = UTC
MEAN_ELEMENT_THEORY = SGP/SGP4

EPOCH          = 2026-02-08T17:18:55.623168
MEAN_MOTION    = 15.61646518
ECCENTRICITY   = .0001718
INCLINATION    = 51.6265
RA_OF_ASC_NODE = 212.4680
ARG_OF_PERICENTER = 232.9156
MEAN_ANOMALY   = 127.1681

EPHEMERIS_TYPE = 0
CLASSIFICATION_TYPE = U
NORAD_CAT_ID   = 66908
ELEMENT_SET_NO = 999
REV_AT_EPOCH   = 1064
BSTAR          = .10552E-2
MEAN_MOTION_DOT = .93221E-3
MEAN_MOTION_DDOT = 0

